[{"OBJECT_NAME":"STARLINK-30354","OBJECT_ID":"2023-134B","EPOCH":"2026-03-09T22:00:01.999584","MEAN_MOTION":15.14786929,"ECCENTRICITY":0.00019052,"INCLINATION":42.9992,"RA_OF_ASC_NODE":195.4235,"ARG_OF_PERICENTER":292.8215,"MEAN_ANOMALY":129.5089,"EPHEMERIS_TYPE":0,"CLASSIFICATION_TYPE":"U","NORAD_CAT_ID":57772,"ELEMENT_SET_NO":999,"REV_AT_EPOCH":563,"BSTAR":0.0041839085,"MEAN_MOTION_DOT":0.00079714,"MEAN_MOTION_DDOT":0},{"OBJECT_NAME":"LEO EXPRESS 3","OBJECT_ID":"2025-276X","EPOCH":"2026-03-09T17:01:27.083136","MEAN_MOTION":15.18911167,"ECCENTRICITY":0.00089891,"INCLINATION":97.4301,"RA_OF_ASC_NODE":143.9034,"ARG_OF_PERICENTER":143.3594,"MEAN_ANOMALY":216.8257,"EPHEMERIS_TYPE":0,"CLASSIFICATION_TYPE":"U","NORAD_CAT_ID":66687,"ELEMENT_SET_NO":999,"REV_AT_EPOCH":1531,"BSTAR":0.00062123771,"MEAN_MOTION_DOT":0.00012924,"MEAN_MOTION_DDOT":0}]
